{
  "norad_id": 65124,
  "name": "GEESAT-4 06",
  "history": [
    {
      "epoch": "2026-03-28T17:38:13.279488Z",
      "apogee_km": 630.656862829168,
      "perigee_km": 604.630879001953,
      "latitude_deg": -1.374372911004514e-05,
      "longitude_deg": 96.47029470243456,
      "height_km": 618.6543398475213,
      "semi_major_axis_km": 6995.780870915561,
      "eccentricity": 0.00186012,
      "inclination_deg": 49.9828,
      "raan_deg": 187.1767,
      "arg_perigee_deg": 92.2625,
      "mean_anomaly_deg": 268.0443,
      "mean_motion_rev_day": 14.83708093
    },
    {
      "epoch": "2026-03-29T04:57:06.640704Z",
      "apogee_km": 630.6364531981562,
      "perigee_km": 604.6247900274766,
      "latitude_deg": -2.7938662979765473e-05,
      "longitude_deg": -75.90233880020368,
      "height_km": 619.0617301404387,
      "semi_major_axis_km": 6995.767621612817,
      "eccentricity": 0.0018591,
      "inclination_deg": 49.9829,
      "raan_deg": 184.9911,
      "arg_perigee_deg": 94.1191,
      "mean_anomaly_deg": 266.1872,
      "mean_motion_rev_day": 14.83712308
    },
    {
      "epoch": "2026-03-30T03:34:53.165280Z",
      "apogee_km": 630.6077558523784,
      "perigee_km": 604.6213371577314,
      "latitude_deg": -6.524408778217076e-05,
      "longitude_deg": -60.64688602052399,
      "height_km": 619.8589653171393,
      "semi_major_axis_km": 6995.751546505055,
      "eccentricity": 0.0018573,
      "inclination_deg": 49.983,
      "raan_deg": 180.6198,
      "arg_perigee_deg": 97.7272,
      "mean_anomaly_deg": 262.5775,
      "mean_motion_rev_day": 14.83717422
    },
    {
      "epoch": "2026-03-30T06:48:51.216768Z",
      "apogee_km": 630.604709233593,
      "perigee_km": 604.6205363246963,
      "latitude_deg": 3.2466455244097297e-06,
      "longitude_deg": -109.89597592500165,
      "height_km": 619.9769389524089,
      "semi_major_axis_km": 6995.749622779144,
      "eccentricity": 0.00185714,
      "inclination_deg": 49.9829,
      "raan_deg": 179.9953,
      "arg_perigee_deg": 98.2616,
      "mean_anomaly_deg": 262.0429,
      "mean_motion_rev_day": 14.83718034
    },
    {
      "epoch": "2026-03-30T14:53:46.277664Z",
      "apogee_km": 630.600675857504,
      "perigee_km": 604.6085575399893,
      "latitude_deg": -3.0118830117074477e-05,
      "longitude_deg": 126.98156184339113,
      "height_km": 620.2559682440871,
      "semi_major_axis_km": 6995.741616698747,
      "eccentricity": 0.00185771,
      "inclination_deg": 49.9829,
      "raan_deg": 178.4342,
      "arg_perigee_deg": 99.539,
      "mean_anomaly_deg": 260.7648,
      "mean_motion_rev_day": 14.83720581
    },
    {
      "epoch": "2026-03-30T18:07:44.285952Z",
      "apogee_km": 630.5989879249637,
      "perigee_km": 604.6029655182256,
      "latitude_deg": 4.149058161026584e-05,
      "longitude_deg": 77.73255503617655,
      "height_km": 620.369313548649,
      "semi_major_axis_km": 6995.737976721594,
      "eccentricity": 0.00185799,
      "inclination_deg": 49.9829,
      "raan_deg": 177.8096,
      "arg_perigee_deg": 100.0606,
      "mean_anomaly_deg": 260.243,
      "mean_motion_rev_day": 14.83721739
    },
    {
      "epoch": "2026-03-31T16:45:30.259296Z",
      "apogee_km": 630.571508914627,
      "perigee_km": 604.595000464913,
      "latitude_deg": 5.4893090497621364e-05,
      "longitude_deg": 92.99035393503749,
      "height_km": 621.1617064736324,
      "semi_major_axis_km": 6995.72025468977,
      "eccentricity": 0.0018566,
      "inclination_deg": 49.9829,
      "raan_deg": 173.4383,
      "arg_perigee_deg": 103.7169,
      "mean_anomaly_deg": 256.5838,
      "mean_motion_rev_day": 14.83727377
    }
  ]
}